{"type": "FeatureCollection", "features": [{"type": "Feature", "properties": {"kind": "void_footprint", "cells": 2055, "area_m2": 513.75, "crs_note": "local scanner metric frame (ENU, metres); dataset has no georeferencing \u2014 see registration_report.json", "registered_from": "indian_tunnel_cave_registered_to_NorthSurface.npz"}, "geometry": {"type": "Polygon", "coordinates": [[[-0.41475677490234375, -96.4516830444336], [-0.41475677490234375, -96.9516830444336], [-1.9147567749023438, -96.9516830444336], [-1.9147567749023438, -97.4516830444336], [-3.9147567749023438, -97.4516830444336], [-3.9147567749023438, -97.9516830444336], [-7.414756774902344, -97.9516830444336], [-7.414756774902344, -98.4516830444336], [-11.414756774902344, -98.4516830444336], [-11.414756774902344, -98.9516830444336], [-12.414756774902344, -98.9516830444336], [-12.414756774902344, -99.4516830444336], [-13.414756774902344, -99.4516830444336], [-13.414756774902344, -99.9516830444336], [-13.914756774902344, -99.9516830444336], [-13.914756774902344, -100.4516830444336], [-14.914756774902344, -100.4516830444336], [-14.914756774902344, -100.9516830444336], [-15.914756774902344, -100.9516830444336], [-15.914756774902344, -101.4516830444336], [-16.914756774902344, -101.4516830444336], [-16.914756774902344, -101.9516830444336], [-19.414756774902344, -101.9516830444336], [-19.414756774902344, -102.4516830444336], [-22.414756774902344, -102.4516830444336], [-22.414756774902344, -102.9516830444336], [-23.414756774902344, -102.9516830444336], [-23.414756774902344, -103.4516830444336], [-23.914756774902344, -103.4516830444336], [-23.914756774902344, -103.9516830444336], [-25.914756774902344, -103.9516830444336], [-25.914756774902344, -104.4516830444336], [-26.414756774902344, -104.4516830444336], [-26.414756774902344, -104.9516830444336], [-26.914756774902344, -104.9516830444336], [-26.914756774902344, -105.4516830444336], [-27.414756774902344, -105.4516830444336], [-27.414756774902344, -105.9516830444336], [-27.914756774902344, -105.9516830444336], [-27.914756774902344, -106.4516830444336], [-28.414756774902344, -106.4516830444336], [-28.414756774902344, -107.9516830444336], [-28.914756774902344, -107.9516830444336], [-28.914756774902344, -108.9516830444336], [-29.414756774902344, -108.9516830444336], [-29.414756774902344, -110.9516830444336], [21.085243225097656, -110.9516830444336], [21.085243225097656, -102.9516830444336], [20.585243225097656, -102.9516830444336], [20.585243225097656, -102.4516830444336], [11.585243225097656, -102.4516830444336], [11.585243225097656, -101.9516830444336], [10.085243225097656, -101.9516830444336], [10.085243225097656, -101.4516830444336], [9.085243225097656, -101.4516830444336], [9.085243225097656, -100.9516830444336], [8.085243225097656, -100.9516830444336], [8.085243225097656, -100.4516830444336], [7.085243225097656, -100.4516830444336], [7.085243225097656, -99.9516830444336], [6.585243225097656, -99.9516830444336], [6.585243225097656, -99.4516830444336], [5.585243225097656, -99.4516830444336], [5.585243225097656, -98.9516830444336], [4.585243225097656, -98.9516830444336], [4.585243225097656, -98.4516830444336], [3.5852432250976562, -98.4516830444336], [3.5852432250976562, -97.9516830444336], [3.0852432250976562, -97.9516830444336], [3.0852432250976562, -97.4516830444336], [2.0852432250976562, -97.4516830444336], [2.0852432250976562, -96.9516830444336], [1.0852432250976562, -96.9516830444336], [1.0852432250976562, -96.4516830444336], [-0.41475677490234375, -96.4516830444336]]]}}]}